ContactID,FullName,Email,Phone,City,State,Country
C001,Brooke Brown,brian87@example.com,+1-395-557-1028x208,North Jeffery,Texas,USA
C002,Daniel Hoffman,ryan23@example.net,957.962.1534,Hamiltonchester,California,USA
C003,Steven Meyers,obrienwillie@example.org,885-604-3025x33639,South Shawnberg,Illinois,USA
C004,Tammy Moran,meghan25@example.org,3399431203,Port Bradleyland,Florida,USA
C005,Sandra Campbell,romananthony@example.org,7396004476,East Samanthafurt,Florida,USA
C006,Deanna Mcbride,mendozafrancis@example.net,440-325-9393x693,Hamiltonville,New York,USA
C007,Hector King DDS,tuckerlogan@example.com,(543)212-7104x9392,Erinburgh,Texas,USA
C008,Dana Jones,twilson@example.org,(454)316-9902,East Christopher,North Carolina,USA
C009,Amanda Benton,haasshawn@example.org,(419)293-7120x5313,Randyberg,Texas,USA
C010,Scott Acosta,brianchavez@example.net,258-677-9597,Port Randy,Michigan,USA
C011,Jeffrey Flores,kyoung@example.net,001-450-279-8166x742,Johnmouth,Ohio,USA
C012,Toni Rivera,hermanscott@example.org,873.759.1799x629,Port Audreyton,California,USA
C013,Joseph Berry,bjohnson@example.com,752.704.0451,Hunterton,California,USA
C014,Amy Williams,amypowell@example.org,(512)729-3926x975,Aaronville,Texas,USA
C015,Bradley Berger,aaronmedina@example.net,265-702-5924,Gregoryville,Florida,USA
C016,Brooke Stevens,jsimmons@example.net,6877517310,Williamsside,Florida,USA
C017,Scott Holder,megan12@example.com,970.325.2891,North William,North Carolina,USA
C018,Brooke Bailey,mccoyrachael@example.com,729-536-6958x15099,Melanietown,Michigan,USA
C019,Timothy Daniels,robertomeyer@example.net,+1-623-580-4920x77505,Sheltonhaven,California,USA
C020,Douglas Ortiz,jconley@example.net,231.873.2291,Jennifermouth,North Carolina,USA
C021,Joseph Roman,sgonzalez@example.com,001-402-215-1175x7629,Jonathanstad,Florida,USA
C022,Amanda Collins,fmeza@example.net,+1-278-263-7718,North Angelaton,North Carolina,USA
C023,Lydia Campbell,barbercarolyn@example.com,284-917-8925x87739,Brandimouth,Ohio,USA
C024,Ashley Knapp,jimenezryan@example.net,001-253-346-1813x344,Melissaside,Florida,USA
C025,Robert Nguyen,tonya98@example.org,550.287.9571x904,South Kurtfurt,Georgia,USA
C026,Joshua Carroll,bduffy@example.org,(294)914-6977x36321,East Danielle,Michigan,USA
C027,Miranda Crawford,xavierhood@example.org,864.237.3954,Stevenburgh,Illinois,USA
C028,Haley Sutton,cruzthomas@example.com,232.833.9460,Lake Michaelton,California,USA
C029,Larry Herrera,alove@example.com,+1-730-928-4943x87378,Gordontown,New York,USA
C030,Eric Allen,ywatts@example.org,814.705.7262x758,East Steve,Ohio,USA
C031,Robin Lopez,alexander27@example.net,+1-449-886-1929x82834,Manntown,Pennsylvania,USA
C032,Cynthia Morrison,john35@example.com,792-364-9548x967,West William,Illinois,USA
C033,Kenneth Bates,aaronray@example.org,+1-582-942-4506,Tapiamouth,New York,USA
C034,Sharon Knight,patrickwilliams@example.org,556.530.7749x1474,West Matthewmouth,Florida,USA
C035,Caitlin Lara,williamsdennis@example.com,(357)763-2086x773,Rogersburgh,Pennsylvania,USA
C036,Katherine Hull,jackie03@example.com,9083636259,Christopherland,Texas,USA
C037,Patricia Kent,vhanson@example.org,(985)709-1591x1421,Kathleenmouth,Texas,USA
C038,Brad Thornton,torreslaurie@example.com,9196327223,Huntershire,Ohio,USA
C039,Billy Taylor,veronica75@example.com,790.884.1069x484,New Jackmouth,Texas,USA
C040,Kayla Price,christina11@example.org,422-367-7232,Munozchester,Pennsylvania,USA
C041,Brandon Smith,uwhite@example.org,(571)689-9635x336,Alvaradoton,Pennsylvania,USA
C042,Brenda Mendez,cassidycline@example.org,222-737-4152,Simmonsport,Michigan,USA
C043,Anthony Garcia,christiancunningham@example.org,2305161683,West Diane,Illinois,USA
C044,Cameron Melendez,justin13@example.org,677.659.2997x08549,Cynthiaview,California,USA
C045,Carl Thomas,anthony42@example.net,569.833.2938x26495,Thompsonmouth,Georgia,USA
C046,Kathy Lynch,brandon71@example.org,+1-778-620-9682x6222,Port Lynnfurt,North Carolina,USA
C047,Brandy Smith,hdavis@example.com,946-750-9670,South David,Texas,USA
C048,Scott Campos,nyoung@example.com,521-950-6657x7250,East Anthony,Ohio,USA
C049,Deborah Perez,jonathan88@example.org,330.290.9717,South Shannonberg,Texas,USA
C050,Katherine Watkins,jessica58@example.com,831.629.5340x019,Williamsmouth,North Carolina,USA
C051,Yolanda Peterson,victoria60@example.org,+1-836-950-6590x32207,Lesterfort,Illinois,USA
C052,Kevin Henderson,jamesdavis@example.net,+1-610-955-9721x76909,Jenniferport,Michigan,USA
C053,Todd Henry,jeffsanchez@example.com,8872596928,Marilynmouth,Pennsylvania,USA
C054,Julie Patrick,tinaoconnor@example.org,001-912-399-1704x30532,Petersonshire,Michigan,USA
C055,Shawn Adams,mark62@example.com,(346)949-4281x3517,Murilloville,Florida,USA
C056,Rhonda Richards,krista22@example.org,736.357.5309x44643,Princetown,Texas,USA
C057,Roberto Odom,stevenlang@example.com,657-614-5059,South Alison,California,USA
C058,Jessica Bowman,jennifer28@example.com,+1-837-466-5291x41803,Kathrynchester,Florida,USA
C059,John Walker,kristiconner@example.com,+1-736-753-5053,North Williamton,Illinois,USA
C060,Christine Fowler,rporter@example.com,715.724.6431,Yvonneborough,Texas,USA
C061,Justin Stanley,christine03@example.com,2765716118,Port Gloria,Florida,USA
C062,Jane Bell,nancy06@example.org,+1-812-863-2079x0469,Peggyfort,Texas,USA
C063,Robert Jordan,colonlisa@example.net,215-654-5302,Crystalmouth,Ohio,USA
C064,Mr. Juan Joseph,meltondustin@example.org,409.956.6186x48864,Lake Mary,Illinois,USA
C065,Gloria Davis,danielsamy@example.net,001-300-834-1809x581,East Justin,Georgia,USA
C066,Chad Noble,obrienkaren@example.com,900-212-0751x851,Melissafort,Pennsylvania,USA
C067,Brandi Brown,michael40@example.org,+1-611-241-7548x60481,North Josephton,New York,USA
C068,Gregory Williams,moralesdavid@example.org,001-224-507-8543x731,Mikeview,Pennsylvania,USA
C069,Craig Garrett,todd23@example.com,293-789-2307x49645,New Kayla,Pennsylvania,USA
C070,Hannah Jordan,johnsonmaria@example.com,001-879-812-9031x66983,Hornbury,Florida,USA
C071,Katelyn Ashley,hamiltonmichele@example.net,+1-965-237-6239,Brownchester,Illinois,USA
C072,Morgan Baxter,scottpierce@example.org,001-688-957-3018x732,Kevinside,Texas,USA
C073,Daniel Oneill,charles33@example.net,6639962207,Brandonbury,Michigan,USA
C074,Cynthia Rodriguez,iparker@example.net,750.399.9375x0124,West Todd,New York,USA
C075,Gina Valdez,eburch@example.net,382-657-7537,Nancyfort,North Carolina,USA
C076,Gabrielle Munoz,vfuller@example.org,287.817.5765x2340,Port Jennifer,Florida,USA
C077,Cynthia Howard,zsmith@example.net,3222538271,Brettmouth,New York,USA
C078,Michael Matthews,ericcombs@example.net,001-773-824-2357x1214,East Veronicaborough,Georgia,USA
C079,Shawn Anderson,darlenesanchez@example.net,629-886-0011x138,Robinsonchester,Ohio,USA
C080,Michael Adams,craig30@example.com,+1-410-417-0080x01354,Port Joshuaside,Illinois,USA
C081,Perry Ramirez,brooksangela@example.org,9425112449,North Christinamouth,North Carolina,USA
C082,Matthew Adams,harriscarrie@example.com,9003179204,Port Jasonborough,Florida,USA
C083,Clinton Morris,silvamichael@example.net,+1-942-344-8762,North Matthew,Pennsylvania,USA
C084,Donna Arnold,willisallen@example.net,268.361.5461,South Maryborough,California,USA
C085,Vincent Lee,wbrewer@example.com,(875)972-5793,Johnsonfurt,Florida,USA
C086,Jeffrey Curry,carolwalters@example.org,380.521.7300,Jamesburgh,California,USA
C087,Terry Murray,matthewedwards@example.com,6554026822,East Kristinmouth,Pennsylvania,USA
C088,Edward Maynard,imclaughlin@example.net,001-844-266-5242x91421,Michellestad,Ohio,USA
C089,Lisa Baker,mckinneyjohn@example.com,(879)554-9551,Kimland,Illinois,USA
C090,Kristin Edwards,donnagarza@example.org,(846)964-5883x82964,North Jonview,Texas,USA
C091,Margaret Flowers,lauramorgan@example.com,(581)923-9776x84668,West Vincent,Florida,USA
C092,Tracy Burton,vaughngregory@example.com,5368659289,East April,Michigan,USA
C093,Mr. Jimmy Wong,tashamclaughlin@example.org,668.753.0201x16307,East Paula,Pennsylvania,USA
C094,Jenny Powell,jamescarroll@example.net,+1-914-245-8005,Brittneybury,Florida,USA
C095,Craig Eaton,teresa05@example.org,909-741-1835x53538,South Michaelton,Georgia,USA
C096,Emily Perez,troy40@example.net,001-313-920-8953,East Taramouth,Ohio,USA
C097,Richard Stuart,gordonthompson@example.org,624-801-5818x50003,Deannafurt,Georgia,USA
C098,Victoria Ashley,nelsonvanessa@example.com,(281)626-9689,Victoriafort,New York,USA
C099,Lisa Vazquez,abigail44@example.net,(346)288-7014x213,Port Cody,Illinois,USA
C100,Nancy Taylor,jreynolds@example.com,988-876-4155x879,Kellyton,New York,USA
